[Satellite]
VERSION=1.1
NAME=IRIDIUM 103 [+]
NICKNAME=IRIDIUM 103 [+]
TLE1=1 41918U 17003B   20157.63021639  .00000052  00000-0  11588-4 0  9993
TLE2=2 41918  86.3956 288.7956 0002492  86.2728 273.8753 14.34217350177546
STATUS=0
